{
  "links" : {
    "next" : "https://api.nasa.gov/neo/rest/v1/feed?start_date=2015-06-09&end_date=2015-06-09&detailed=true&api_key=t0TVs3DtDT2H8Oy2Zy8m2eVrNsAVKAexjcZXUckd",
    "prev" : "https://api.nasa.gov/neo/rest/v1/feed?start_date=2015-06-07&end_date=2015-06-07&detailed=true&api_key=t0TVs3DtDT2H8Oy2Zy8m2eVrNsAVKAexjcZXUckd",
    "self" : "https://api.nasa.gov/neo/rest/v1/feed?start_date=2015-06-08&end_date=2015-06-08&detailed=true&api_key=t0TVs3DtDT2H8Oy2Zy8m2eVrNsAVKAexjcZXUckd"
  },
  "element_count" : 9,
  "near_earth_objects" : {
    "2015-06-08" : [ {
      "links" : {
        "self" : "https://api.nasa.gov/neo/rest/v1/neo/3720916?api_key=t0TVs3DtDT2H8Oy2Zy8m2eVrNsAVKAexjcZXUckd"
      },
      "neo_reference_id" : "3720916",
      "name" : "(2015 LF)",
      "nasa_jpl_url" : "http://ssd.jpl.nasa.gov/sbdb.cgi?sstr=3720916",
      "absolute_magnitude_h" : 26.6,
      "estimated_diameter" : {
        "kilometers" : {
          "estimated_diameter_min" : 0.0127219879,
          "estimated_diameter_max" : 0.0284472297
        },
        "meters" : {
          "estimated_diameter_min" : 12.7219878539,
          "estimated_diameter_max" : 28.4472296503
        },
        "miles" : {
          "estimated_diameter_min" : 0.0079050743,
          "estimated_diameter_max" : 0.0176762835
        },
        "feet" : {
          "estimated_diameter_min" : 41.7388066307,
          "estimated_diameter_max" : 93.330808926
        }
      },
      "is_potentially_hazardous_asteroid" : false,
      "close_approach_data" : [ {
        "close_approach_date" : "2015-06-08",
        "epoch_date_close_approach" : 1433746800000,
        "relative_velocity" : {
          "kilometers_per_second" : "16.759491225",
          "kilometers_per_hour" : "60334.1684098862",
          "miles_per_hour" : "37489.3059211318"
        },
        "miss_distance" : {
          "astronomical" : "0.0013152465",
          "lunar" : "0.5116308928",
          "kilometers" : "196758.078125",
          "miles" : "122259.796875"
        },
        "orbiting_body" : "Earth"
      } ],
      "orbital_data" : {
        "orbit_id" : "8",
        "orbit_determination_date" : "2017-04-14 06:13:06",
        "orbit_uncertainty" : "7",
        "minimum_orbit_intersection" : ".00098174",
        "jupiter_tisserand_invariant" : "3.176",
        "epoch_osculation" : "2458000.5",
        "eccentricity" : ".6651089169105489",
        "semi_major_axis" : "2.393609181839774",
        "inclination" : "8.449859629748689",
        "ascending_node_longitude" : "77.29335550002433",
        "orbital_period" : "1352.62774086557",
        "perihelion_distance" : ".8015983713991771",
        "perihelion_argument" : "242.0588385527156",
        "aphelion_distance" : "3.985619992280372",
        "perihelion_time" : "2458576.005809527279",
        "mean_anomaly" : "206.8299258026152",
        "mean_motion" : ".2661486151168463",
        "equinox" : "J2000"
      }
    }, {
      "links" : {
        "self" : "https://api.nasa.gov/neo/rest/v1/neo/2066391?api_key=t0TVs3DtDT2H8Oy2Zy8m2eVrNsAVKAexjcZXUckd"
      },
      "neo_reference_id" : "2066391",
      "name" : "66391 (1999 KW4)",
      "nasa_jpl_url" : "http://ssd.jpl.nasa.gov/sbdb.cgi?sstr=2066391",
      "absolute_magnitude_h" : 16.5,
      "estimated_diameter" : {
        "kilometers" : {
          "estimated_diameter_min" : 1.332155667,
          "estimated_diameter_max" : 2.978790628
        },
        "meters" : {
          "estimated_diameter_min" : 1332.1556669813,
          "estimated_diameter_max" : 2978.7906279817
        },
        "miles" : {
          "estimated_diameter_min" : 0.8277628989,
          "estimated_diameter_max" : 1.8509341113
        },
        "feet" : {
          "estimated_diameter_min" : 4370.5895984589,
          "estimated_diameter_max" : 9772.9354439076
        }
      },
      "is_potentially_hazardous_asteroid" : true,
      "close_approach_data" : [ {
        "close_approach_date" : "2015-06-08",
        "epoch_date_close_approach" : 1433746800000,
        "relative_velocity" : {
          "kilometers_per_second" : "22.885558789",
          "kilometers_per_hour" : "82388.0116405177",
          "miles_per_hour" : "51192.7064551872"
        },
        "miss_distance" : {
          "astronomical" : "0.3243815501",
          "lunar" : "126.184425354",
          "kilometers" : "48526792",
          "miles" : "30153150"
        },
        "orbiting_body" : "Earth"
      } ],
      "orbital_data" : {
        "orbit_id" : "212",
        "orbit_determination_date" : "2017-08-15 06:21:26",
        "orbit_uncertainty" : "0",
        "minimum_orbit_intersection" : ".0137915",
        "jupiter_tisserand_invariant" : "8.499",
        "epoch_osculation" : "2458000.5",
        "eccentricity" : ".6885812527978447",
        "semi_major_axis" : ".6422280695089236",
        "inclination" : "38.88383939170367",
        "ascending_node_longitude" : "244.9135253244094",
        "orbital_period" : "187.988962717694",
        "perihelion_distance" : ".2000018608245277",
        "perihelion_argument" : "192.6176703993719",
        "aphelion_distance" : "1.08445427819332",
        "perihelion_time" : "2458001.008485648125",
        "mean_anomaly" : "359.0262469100393",
        "mean_motion" : "1.915006045012428",
        "equinox" : "J2000"
      }
    }, {
      "links" : {
        "self" : "https://api.nasa.gov/neo/rest/v1/neo/2085236?api_key=t0TVs3DtDT2H8Oy2Zy8m2eVrNsAVKAexjcZXUckd"
      },
      "neo_reference_id" : "2085236",
      "name" : "85236 (1993 KH)",
      "nasa_jpl_url" : "http://ssd.jpl.nasa.gov/sbdb.cgi?sstr=2085236",
      "absolute_magnitude_h" : 18.6,
      "estimated_diameter" : {
        "kilometers" : {
          "estimated_diameter_min" : 0.5064714588,
          "estimated_diameter_max" : 1.1325046106
        },
        "meters" : {
          "estimated_diameter_min" : 506.4714588346,
          "estimated_diameter_max" : 1132.5046106177
        },
        "miles" : {
          "estimated_diameter_min" : 0.3147066768,
          "estimated_diameter_max" : 0.7037055224
        },
        "feet" : {
          "estimated_diameter_min" : 1661.651821003,
          "estimated_diameter_max" : 3715.566426699
        }
      },
      "is_potentially_hazardous_asteroid" : true,
      "close_approach_data" : [ {
        "close_approach_date" : "2015-06-08",
        "epoch_date_close_approach" : 1433746800000,
        "relative_velocity" : {
          "kilometers_per_second" : "16.0088706989",
          "kilometers_per_hour" : "57631.934515918",
          "miles_per_hour" : "35810.2428662936"
        },
        "miss_distance" : {
          "astronomical" : "0.249707204",
          "lunar" : "97.136100769",
          "kilometers" : "37355668",
          "miles" : "23211736"
        },
        "orbiting_body" : "Earth"
      } ],
      "orbital_data" : {
        "orbit_id" : "78",
        "orbit_determination_date" : "2017-04-06 09:28:42",
        "orbit_uncertainty" : "0",
        "minimum_orbit_intersection" : ".00118835",
        "jupiter_tisserand_invariant" : "5.119",
        "epoch_osculation" : "2458000.5",
        "eccentricity" : ".3111886921828933",
        "semi_major_axis" : "1.233976567175179",
        "inclination" : "12.80492879466548",
        "ascending_node_longitude" : "54.39857977972615",
        "orbital_period" : "500.6783310112152",
        "perihelion_distance" : ".8499770130515989",
        "perihelion_argument" : "293.8497914234173",
        "aphelion_distance" : "1.617976121298759",
        "perihelion_time" : "2458247.074453134522",
        "mean_anomaly" : "182.7069205308997",
        "mean_motion" : ".7190245267313875",
        "equinox" : "J2000"
      }
    } ]
  }
}